[{"OBJECT_NAME":"STARLINK-5877","OBJECT_ID":"2023-058AP","EPOCH":"2026-03-09T23:06:40.944960","MEAN_MOTION":15.05648727,"ECCENTRICITY":0.00017819,"INCLINATION":97.6041,"RA_OF_ASC_NODE":71.4255,"ARG_OF_PERICENTER":80.0636,"MEAN_ANOMALY":280.0792,"EPHEMERIS_TYPE":0,"CLASSIFICATION_TYPE":"U","NORAD_CAT_ID":56354,"ELEMENT_SET_NO":999,"REV_AT_EPOCH":15823,"BSTAR":5.2843646e-5,"MEAN_MOTION_DOT":7.02e-6,"MEAN_MOTION_DDOT":0},{"OBJECT_NAME":"CZ-6A DEB","OBJECT_ID":"2024-140AK","EPOCH":"2026-03-09T15:33:22.779648","MEAN_MOTION":14.91455209,"ECCENTRICITY":0.0138813,"INCLINATION":89.0614,"RA_OF_ASC_NODE":284.4893,"ARG_OF_PERICENTER":156.7754,"MEAN_ANOMALY":203.9833,"EPHEMERIS_TYPE":0,"CLASSIFICATION_TYPE":"U","NORAD_CAT_ID":60634,"ELEMENT_SET_NO":999,"REV_AT_EPOCH":8558,"BSTAR":0.0013703,"MEAN_MOTION_DOT":0.00016538,"MEAN_MOTION_DDOT":0}]
